NORAD_CAT_ID,OBJECT_NAME,OBJECT_TYPE,EPOCH,MEAN_MOTION,ECCENTRICITY,INCLINATION,RA_OF_ASC_NODE,ARG_OF_PERICENTER,MEAN_ANOMALY,BSTAR,MEAN_MOTION_DOT,MEAN_MOTION_DDOT,TLE_LINE0,TLE_LINE1,TLE_LINE2,SEMIMAJOR_AXIS,PERIOD,APOGEE,PERIGEE,DECAYED
50167.0,STARLINK-3271,PAYLOAD,2023-03-01 11:05:51,15.0876988,0.000158,53.2154,176.1968,83.4883,276.6289,0.0031687,0.00050406,0.0,0 STARLINK-3271,1 50167U 21125M   23060.46240419  .00050406  00000-0  31687-2 0  9993,2 50167  53.2154 176.1968 0001580  83.4883 276.6289 15.08769880 69273,6918.095,95.442,541.053,538.867,0.0
50167.0,STARLINK-3271,PAYLOAD,2023-03-01 19:02:45,15.08819722,0.0001332,53.2157,174.7092,77.8574,282.2567,0.0017197,0.00027172,0.0,0 STARLINK-3271,1 50167U 21125M   23060.79358782  .00027172  00000-0  17197-2 0  9996,2 50167  53.2157 174.7092 0001332  77.8574 282.2567 15.08819722 69809,6917.942,95.439,540.729,538.886,0.0
50167.0,STARLINK-3271,PAYLOAD,2023-03-02 17:18:08,15.0885733,0.0001501,53.2157,170.5476,83.1145,277.0018,0.00066412,0.00010302,0.0,0 STARLINK-3271,1 50167U 21125M   23061.72093357  .00010302  00000-0  66412-3 0  9996,2 50167  53.2157 170.5476 0001501  83.1145 277.0018 15.08857330 69946,6917.827,95.436,540.731,538.654,0.0
50167.0,STARLINK-3271,PAYLOAD,2023-03-03 10:47:22,15.08870044,0.0001835,53.2162,167.2758,104.311,255.8086,0.00081635,0.00012739,0.0,0 STARLINK-3271,1 50167U 21125M   23062.44956671  .00012739  00000-0  81635-3 0  9993,2 50167  53.2162 167.2758 0001835 104.3110 255.8086 15.08870044 69571,6917.789,95.436,540.923,538.384,0.0
50167.0,STARLINK-3271,PAYLOAD,2023-03-03 12:22:45,15.08880573,0.0001655,53.2158,166.9777,96.9604,263.1577,0.0016688,0.000264,0.0,0 STARLINK-3271,1 50167U 21125M   23062.51580650  .00026400  00000-0  16688-2 0  9996,2 50167  53.2158 166.9777 0001655  96.9604 263.1577 15.08880573 70068,6917.756,95.435,540.766,538.476,0.0
50167.0,STARLINK-3271,PAYLOAD,2023-03-03 18:44:17,15.08908122,0.0001403,53.2163,165.7893,90.6292,269.4861,0.0026434,0.00042112,0.0,0 STARLINK-3271,1 50167U 21125M   23062.78075716  .00042112  00000-0  26434-2 0  9995,2 50167  53.2163 165.7893 0001403  90.6292 269.4861 15.08908122 69621,6917.672,95.433,540.508,538.567,0.0
50167.0,STARLINK-3271,PAYLOAD,2023-03-04 07:27:23,15.08839102,9.3e-05,53.2167,163.4114,104.7645,255.345,0.00039411,5.99e-05,0.0,0 STARLINK-3271,1 50167U 21125M   23063.31068594  .00005990  00000-0  39411-3 0  9994,2 50167  53.2167 163.4114 0000930 104.7645 255.3450 15.08839102 69707,6917.883,95.438,540.391,539.105,0.0
50167.0,STARLINK-3271,PAYLOAD,2023-03-04 10:38:09,15.08843837,9.68e-05,53.2174,162.8168,114.3161,245.7932,0.0016699,0.00026391,0.0,0 STARLINK-3271,1 50167U 21125M   23063.44316721  .00026391  00000-0  16699-2 0  9996,2 50167  53.2174 162.8168 0000968 114.3161 245.7932 15.08843837 70203,6917.869,95.437,540.403,539.064,0.0
50167.0,STARLINK-3271,PAYLOAD,2023-03-04 16:59:42,15.08861726,8.37e-05,53.217,161.6276,101.1512,258.9575,0.0032312,0.00051543,0.0,0 STARLINK-3271,1 50167U 21125M   23063.70812787  .00051543  00000-0  32312-2 0  9995,2 50167  53.2170 161.6276 0000837 101.1512 258.9575 15.08861726 69760,6917.814,95.436,540.258,539.1,0.0
50167.0,STARLINK-3271,PAYLOAD,2023-03-05 20:01:15,15.08888887,0.0001374,53.2158,156.5723,175.1636,184.937,0.0032866,0.00052478,0.0,0 STARLINK-3271,1 50167U 21125M   23064.83420829  .00052478  00000-0  32866-2 0  9994,2 50167  53.2158 156.5723 0001374 175.1636 184.9370 15.08888887 69938,6917.731,95.434,540.546,538.645,0.0
50167.0,STARLINK-3271,PAYLOAD,2023-03-06 05:33:34,15.08842125,5.63e-05,53.2168,154.7882,117.8877,242.2172,0.0021175,0.00033575,0.0,0 STARLINK-3271,1 50167U 21125M   23065.23165314  .00033575  00000-0  21175-2 0  9992,2 50167  53.2168 154.7882 0000563 117.8877 242.2172 15.08842125 69993,6917.874,95.437,540.128,539.349,0.0
50167.0,STARLINK-3271,PAYLOAD,2023-03-06 11:55:06,15.08879607,6.86e-05,53.2159,153.5999,102.5757,257.5312,0.0032621,0.00052068,0.0,0 STARLINK-3271,1 50167U 21125M   23065.49660798  .00052068  00000-0  32621-2 0  9992,2 50167  53.2159 153.5999 0000686 102.5757 257.5312 15.08879607 70030,6917.759,95.435,540.099,539.15,0.0
50167.0,STARLINK-3271,PAYLOAD,2023-03-06 15:05:52,15.08891193,7.41e-05,53.2159,153.0054,98.8894,261.2182,0.003014,0.00048075,0.0,0 STARLINK-3271,1 50167U 21125M   23065.62908362  .00048075  00000-0  30140-2 0  9996,2 50167  53.2159 153.0054 0000741  98.8894 261.2182 15.08891193 70534,6917.724,95.434,540.102,539.076,0.0
50167.0,STARLINK-3271,PAYLOAD,2023-03-06 23:02:48,15.08859084,0.0001216,53.2169,151.5182,96.8264,263.2866,0.00053554,8.25e-05,0.0,0 STARLINK-3271,1 50167U 21125M   23065.96028556  .00008250  00000-0  53554-3 0  9997,2 50167  53.2169 151.5182 0001216  96.8264 263.2866 15.08859084 70104,6917.822,95.436,540.528,538.846,0.0
50167.0,STARLINK-3271,PAYLOAD,2023-03-07 16:32:03,15.08872531,0.0001382,53.2156,148.2471,99.7716,260.3432,0.0039575,0.00063318,0.0,0 STARLINK-3271,1 50167U 21125M   23066.68893103  .00063318  00000-0  39575-2 0  9997,2 50167  53.2156 148.2471 0001382  99.7716 260.3432 15.08872531 70695,6917.781,95.435,540.602,538.69,0.0
50167.0,STARLINK-3271,PAYLOAD,2023-03-07 22:53:37,15.0880593,0.0002744,53.2158,147.0584,73.0528,287.0764,0.0032778,0.00052218,0.0,0 STARLINK-3271,1 50167U 21125M   23066.95390344  .00052218  00000-0  32778-2 0  9991,2 50167  53.2158 147.0584 0002744  73.0528 287.0764 15.08805930 70253,6917.985,95.44,541.748,537.951,0.0
50167.0,STARLINK-3271,PAYLOAD,2023-03-08 10:01:20,15.08785601,0.0001165,53.2157,144.9766,69.7953,290.3164,0.0029453,0.00046828,0.0,0 STARLINK-3271,1 50167U 21125M   23067.41759805  .00046828  00000-0  29453-2 0  9990,2 50167  53.2157 144.9766 0001165  69.7953 290.3164 15.08785601 70321,6918.047,95.441,540.718,539.106,0.0
50167.0,STARLINK-3271,PAYLOAD,2023-03-09 11:27:29,15.08917588,0.0001537,53.2163,140.2173,83.0626,277.0541,0.0037909,0.00060693,0.0,0 STARLINK-3271,1 50167U 21125M   23068.47742320  .00060693  00000-0  37909-2 0  9992,2 50167  53.2163 140.2173 0001537  83.0626 277.0541 15.08917588 70487,6917.643,95.433,540.571,538.445,0.0
50167.0,STARLINK-3271,PAYLOAD,2023-03-10 04:56:42,15.08893165,0.0002199,53.2163,136.9455,122.3242,237.7963,0.0025947,0.0004131,0.0,0 STARLINK-3271,1 50167U 21125M   23069.20605311  .00041310  00000-0  25947-2 0  9996,2 50167  53.2163 136.9455 0002199 122.3242 237.7963 15.08893165 70595,6917.718,95.434,541.104,538.062,0.0
50167.0,STARLINK-3271,PAYLOAD,2023-03-10 11:18:15,15.08881696,0.0001022,53.216,135.756,92.7054,267.4055,0.0044919,0.00072014,0.0,0 STARLINK-3271,1 50167U 21125M   23069.47101055  .00072014  00000-0  44919-2 0  9996,2 50167  53.2160 135.7560 0001022  92.7054 267.4055 15.08881696 70634,6917.753,95.435,540.325,538.911,0.0
50167.0,STARLINK-3271,PAYLOAD,2023-03-10 14:29:01,15.0888392,0.0001037,53.2162,135.1614,92.9552,267.1559,0.0021365,0.00033919,0.0,0 STARLINK-3271,1 50167U 21125M   23069.60348708  .00033919  00000-0  21365-2 0  9990,2 50167  53.2162 135.1614 0001037  92.9552 267.1559 15.08883920 70651,6917.746,95.435,540.329,538.894,0.0
50167.0,STARLINK-3271,PAYLOAD,2023-03-10 20:50:34,15.08832169,0.0002153,53.2167,133.9737,74.1905,285.9325,0.0023391,0.00037128,0.0,0 STARLINK-3271,1 50167U 21125M   23069.86845496  .00037128  00000-0  23391-2 0  9991,2 50167  53.2167 133.9737 0002153  74.1905 285.9325 15.08832169 71178,6917.904,95.438,541.259,538.28,0.0
50167.0,STARLINK-3271,PAYLOAD,2023-03-11 07:58:16,15.08825931,0.0001175,53.2161,131.8912,62.1345,297.9766,0.00079668,0.00012409,0.0,0 STARLINK-3271,1 50167U 21125M   23070.33213917  .00012409  00000-0  79668-3 0  9996,2 50167  53.2161 131.8912 0001175  62.1345 297.9766 15.08825931 70767,6917.923,95.438,540.601,538.976,0.0
50167.0,STARLINK-3271,PAYLOAD,2023-03-11 12:44:26,15.08832497,0.0001337,53.2163,130.9999,65.2163,294.8969,0.0018119,0.0002866,0.0,0 STARLINK-3271,1 50167U 21125M   23070.53086225  .00028660  00000-0  18119-2 0  9997,2 50167  53.2163 130.9999 0001337  65.2163 294.8969 15.08832497 71279,6917.903,95.438,540.693,538.843,0.0
50167.0,STARLINK-3271,PAYLOAD,2023-03-11 14:19:49,15.08839524,0.000127,53.216,130.7021,62.1733,297.9388,0.0023932,0.00038005,0.0,0 STARLINK-3271,1 50167U 21125M   23070.59710237  .00038005  00000-0  23932-2 0  9993,2 50167  53.2160 130.7021 0001270  62.1733 297.9388 15.08839524 70800,6917.882,95.438,540.625,538.868,0.0
50167.0,STARLINK-3271,PAYLOAD,2023-03-12 12:35:14,15.08862548,9.65e-05,53.2154,126.5387,79.6868,280.4233,0.0025985,0.00041335,0.0,0 STARLINK-3271,1 50167U 21125M   23071.52446864  .00041335  00000-0  25985-2 0  9999,2 50167  53.2154 126.5387 0000965  79.6868 280.4233 15.08862548 70946,6917.811,95.436,540.344,539.009,0.0
50167.0,STARLINK-3271,PAYLOAD,2023-03-13 12:26:00,15.08866893,6.24e-05,53.2153,122.0769,136.274,223.8302,0.0012948,0.00020394,0.0,0 STARLINK-3271,1 50167U 21125M   23072.51805975  .00020394  00000-0  12948-2 0  9998,2 50167  53.2153 122.0769 0000624 136.2740 223.8302 15.08866893 71093,6917.798,95.436,540.095,539.232,0.0
50167.0,STARLINK-3271,PAYLOAD,2023-03-14 04:19:52,15.08821728,0.0001163,53.2147,119.1053,62.2271,297.8839,0.0013987,0.00022031,0.0,0 STARLINK-3271,1 50167U 21125M   23073.18046989  .00022031  00000-0  13987-2 0  9998,2 50167  53.2147 119.1053 0001163  62.2271 297.8839 15.08821728 71190,6917.936,95.439,540.606,538.997,0.0
50167.0,STARLINK-3271,PAYLOAD,2023-03-14 10:41:25,15.08841329,0.0001414,53.215,117.9153,70.8221,289.2924,0.0011154,0.00017509,0.0,0 STARLINK-3271,1 50167U 21125M   23073.44542933  .00017509  00000-0  11154-2 0  9995,2 50167  53.2150 117.9153 0001414  70.8221 289.2924 15.08841329 71717,6917.876,95.437,540.72,538.763,0.0
50167.0,STARLINK-3271,PAYLOAD,2023-03-14 20:13:43,15.08855938,0.000148,53.2151,116.1315,71.4874,288.6279,0.0014797,0.0002335,0.0,0 STARLINK-3271,1 50167U 21125M   23073.84286908  .00023350  00000-0  14797-2 0  9993,2 50167  53.2151 116.1315 0001480  71.4874 288.6279 15.08855938 71776,6917.832,95.437,540.721,538.673,0.0
